COMMENT,ORIGINATOR,NORAD_CAT_ID,OBJECT_NAME,OBJECT_TYPE,CLASSIFICATION_TYPE,INTLDES,EPOCH,EPOCH_MICROSECONDS,MEAN_MOTION,ECCENTRICITY,INCLINATION,RA_OF_ASC_NODE,ARG_OF_PERICENTER,MEAN_ANOMALY,EPHEMERIS_TYPE,ELEMENT_SET_NO,REV_AT_EPOCH,BSTAR,MEAN_MOTION_DOT,MEAN_MOTION_DDOT,FILE,TLE_LINE0,TLE_LINE1,TLE_LINE2,OBJECT_ID,OBJECT_NUMBER,SEMIMAJOR_AXIS,PERIOD,APOGEE,PERIGEE
"GENERATED VIA SPACETRACK.ORG API","JSPOC","15494","COSMOS 1626","PAYLOAD","U","85009A","2016-01-13 04:13:23","72736","15.20535778","0.0004241","82.479","50.2726","83.6959","337.6532","0","999","68955","0.00013655","3.018e-05","0","1979717","0 COSMOS 1626","1 15494U 85009A   16013.17596149  .00003018  00000-0  13655-3 0  9993","2 15494  82.4790  50.2726 0004241  83.6959 337.6532 15.20535778689553","1985-009A","15494","6882.360","94.703","507.144","501.306"
"GENERATED VIA SPACETRACK.ORG API","JSPOC","29275","ARIANE 5 R/B","ROCKET BODY","U","06033D","2016-01-13 04:13:27","495552","2.44709724","0.7149571","6.2477","79.2056","224.8715","48.2635","0","999","8103","0.0017199","6.41e-05","0","1979849","0 ARIANE 5 R/B","1 29275U 06033D   16013.17601268  .00006410  00000-0  17199-2 0  9999","2 29275   6.2477  79.2056 7149571 224.8715  48.2635  2.44709724 81034","2006-033D","29275","23261.320","588.452","33514.030","252.339"
"GENERATED VIA SPACETRACK.ORG API","JSPOC","26032","KOMPSAT","PAYLOAD","U","99070A","2016-01-13 04:13:30","710496","14.68703054","0.0005482","97.8013","173.9172","135.4216","224.7416","0","999","85943","8.7166e-05","4.62e-06","0","1979749","0 KOMPSAT","1 26032U 99070A   16013.17604989  .00000462  00000-0  87166-4 0  9997","2 26032  97.8013 173.9172 0005482 135.4216 224.7416 14.68703054859437","1999-070A","26032","7043.348","98.045","669.074","661.352"
"GENERATED VIA SPACETRACK.ORG API","JSPOC","11510","COSMOS 1125","PAYLOAD","U","79078A","2016-01-13 04:13:44","28192","14.33032764","0.001258","74.0364","296.4014","359.7182","0.396","0","999","90020","3.7967e-05","7.8e-07","0","1979751","0 COSMOS 1125","1 11510U 79078A   16013.17620403  .00000078  00000-0  37967-4 0  9994","2 11510  74.0364 296.4014 0012580 359.7182   0.3960 14.33032764900203","1979-078A","11510","7159.748","100.486","790.620","772.606"
"GENERATED VIA SPACETRACK.ORG API","JSPOC","8072","COSMOS 755","PAYLOAD","U","75074A","2016-01-13 04:13:48","46656","13.73909144","0.002674","82.9034","35.7329","302.5635","126.0086","0","999","2584","-2.1084e-06","1.3e-07","0","1979740","0 COSMOS 755","1 08072U 75074A   16013.17625054  .00000013  00000-0 -21084-5 0  9996","2 08072  82.9034  35.7329 0026740 302.5635 126.0086 13.73909144 25840","1975-074A","8072","7363.706","104.810","1005.262","965.881"
"GENERATED VIA SPACETRACK.ORG API","JSPOC","10587","COSMOS 980","PAYLOAD","U","78005E","2016-01-13 04:13:58","360224","12.4889621","0.000804","74.0308","27.7127","349.0231","78.975","0","999","73289","-6.6635e-05","-2.6e-07","0","1979720","0 COSMOS 980","1 10587U 78005E   16013.17636991 -.00000026  00000-0 -66635-4 0  9994","2 10587  74.0308  27.7127 0008040 349.0231  78.9750 12.48896210732891","1978-005E","10587","7847.252","115.301","1475.426","1462.807"
"GENERATED VIA SPACETRACK.ORG API","JSPOC","7823","COSMOS 734","PAYLOAD","U","75045C","2016-01-13 04:14:04","422912","12.51745661","0.0017264","74.0177","264.1558","79.6459","89.0856","0","999","85680","0.00013612","5e-08","0","1979779","0 COSMOS 734","1 07823U 75045C   16013.17644008  .00000005  00000-0  13612-3 0  9993","2 07823  74.0177 264.1558 0017264  79.6459  89.0856 12.51745661856800","1975-045C","7823","7835.338","115.039","1470.730","1443.676"
"GENERATED VIA SPACETRACK.ORG API","JSPOC","18986","SL-8 R/B","ROCKET BODY","U","88023B","2016-01-13 04:14:19","422816","13.78590221","0.0040577","82.954","71.4937","239.8849","172.5583","0","999","39885","1.3519e-05","2.9e-07","0","1979694","0 SL-8 R/B","1 18986U 88023B   16013.17661369  .00000029  00000-0  13519-4 0  9997","2 18986  82.9540  71.4937 0040577 239.8849 172.5583 13.78590221398851","1988-023B","18986","7347.028","104.454","998.705","939.081"
"GENERATED VIA SPACETRACK.ORG API","JSPOC","38012","PLEIADES 1","PAYLOAD","U","11076F","2016-01-13 04:14:29","73696","14.5853472","0.0001532","98.1751","89.7694","78.0093","282.1325","0","999","21691","-0.00056588","-2.674e-05","0","1979692","0 PLEIADES 1","1 38012U 11076F   16013.17672539 -.00002674  00000-0 -56588-3 0  9996","2 38012  98.1751  89.7694 0001532  78.0093 282.1325 14.58534720216919","2011-076F","38012","7076.046","98.729","698.995","696.827"
"GENERATED VIA SPACETRACK.ORG API","JSPOC","39210","PAYLOAD C","PAYLOAD","U","13037C","2016-01-13 04:14:39","474528","14.88449886","0.0026898","98.0164","25.2276","312.0247","47.8686","0","999","13523","5.229e-05","4.29e-06","0","1979808","0 PAYLOAD C","1 39210U 13037C   16013.17684577  .00000429  00000-0  52290-4 0  9992","2 39210  98.0164  25.2276 0026898 312.0247  47.8686 14.88449886135234","2013-037C","39210","6980.915","96.744","621.557","584.002"
"GENERATED VIA SPACETRACK.ORG API","JSPOC","23590","ATLAS 2 CENTAUR R/B","ROCKET BODY","U","95027B","2016-01-13 04:14:41","258688","3.86259501","0.6105495","26.7262","267.2459","110.6761","322.2305","0","999","26286","0.0013327","4.189e-05","0","1979741","0 ATLAS 2 CENTAUR R/B","1 23590U 95027B   16013.17686642  .00004189  00000-0  13327-2 0  9993","2 23590  26.7262 267.2459 6105495 110.6761 322.2305  3.86259501262863","1995-027B","23590","17158.621","372.806","21256.674","304.298"
"GENERATED VIA SPACETRACK.ORG API","JSPOC","27386","ENVISAT","PAYLOAD","U","02009A","2016-01-13 04:14:44","739744","14.37850781","0.0001163","98.3069","72.006","74.4769","285.6547","0","999","72620","2.3207e-05","2.8e-07","0","1979764","0 ENVISAT","1 27386U 02009A   16013.17690671  .00000028  00000-0  23207-4 0  9993","2 27386  98.3069  72.0060 0001163  74.4769 285.6547 14.37850781726204","2002-009A","27386","7143.745","100.149","766.441","764.779"
"GENERATED VIA SPACETRACK.ORG API","JSPOC","39434","DOVE 4","PAYLOAD","U","13066U","2016-01-13 04:14:55","554432","14.98773433","0.0026893","97.7236","88.9344","127.0039","233.3691","0","999","11668","0.00046071","5.532e-05","0","1979753","0 DOVE 4","1 39434U 13066U   16013.17703188  .00005532  00000-0  46071-3 0  9991","2 39434  97.7236  88.9344 0026893 127.0039 233.3691 14.98773433116683","2013-066U","39434","6948.821","96.078","589.374","551.999"
"GENERATED VIA SPACETRACK.ORG API","JSPOC","28472","AMC-16","PAYLOAD","U","04048A","2016-01-13 04:15:09","367200","1.0027262","0.0002028","0.0436","298.938","352.9279","159.0227","0","999","4063","0","-2.09e-06","0","1979741","0 AMC-16","1 28472U 04048A   16013.17719175 -.00000209  00000-0  00000+0 0  9999","2 28472   0.0436 298.9380 0002028 352.9279 159.0227  1.00272620 40635","2004-048A","28472","42164.497","1436.084","35794.913","35777.811"
"GENERATED VIA SPACETRACK.ORG API","JSPOC","32787","COMPASS 1","PAYLOAD","U","08021E","2016-01-13 04:15:21","896064","14.91564469","0.0014327","97.6248","59.1811","77.217","283.0649","0","999","41780","0.00015458","1.498e-05","0","1979700","0 COMPASS 1","1 32787U 08021E   16013.17733676  .00001498  00000-0  15458-3 0  9997","2 32787  97.6248  59.1811 0014327  77.2170 283.0649 14.91564469417802","2008-021E","32787","6971.193","96.542","603.046","583.071"
"GENERATED VIA SPACETRACK.ORG API","JSPOC","40985","BREEZE-M R/B","ROCKET BODY","U","15060B","2016-01-13 04:15:22","183776","1.91628636","0.4783252","13.5072","336.7719","21.2929","353.1878","0","999","168","0","-8.7e-07","0","1979770","0 BREEZE-M R/B","1 40985U 15060B   16013.17734009 -.00000087  00000-0  00000+0 0  9995","2 40985  13.5072 336.7719 4783252  21.2929 353.1878  1.91628636  1680","2015-060B","40985","27379.671","751.453","34097.923","7905.149"
"GENERATED VIA SPACETRACK.ORG API","JSPOC","40985","BREEZE-M R/B","ROCKET BODY","U","15060B","2016-01-13 04:15:22","175136","1.91628638","0.478326","13.5072","336.7719","21.2929","353.1878","0","999","168","0","-8.7e-07","0","1980270","0 BREEZE-M R/B","1 40985U 15060B   16013.17733999 -.00000087 +00000-0 +00000-0 0  9993","2 40985 013.5072 336.7719 4783260 021.2929 353.1878 01.91628638001681","2015-060B","40985","27379.671","751.453","34097.945","7905.127"
"GENERATED VIA SPACETRACK.ORG API","JSPOC","30774","OE (NEXTSAT)","PAYLOAD","U","07006C","2016-01-13 04:15:33","509088","15.35075853","0.0007757","46.0043","277.6365","308.7972","51.2236","0","999","49148","0.00017914","5.885e-05","0","1979844","0 OE (NEXTSAT)","1 30774U 07006C   16013.17747117  .00005885  00000-0  17914-3 0  9991","2 30774  46.0043 277.6365 0007757 308.7972  51.2236 15.35075853491485","2007-006C","30774","6838.832","93.806","466.002","455.392"
"GENERATED VIA SPACETRACK.ORG API","JSPOC","39492","AIST 1","PAYLOAD","U","13078C","2016-01-13 04:15:38","644704","14.87253945","0.0019434","82.419","320.1399","324.0296","35.9607","0","999","11077","7.2077e-05","6.75e-06","0","1979805","0 AIST 1","1 39492U 13078C   16013.17753061  .00000675  00000-0  72077-4 0  9992","2 39492  82.4190 320.1399 0019434 324.0296  35.9607 14.87253945110771","2013-078C","39492","6984.657","96.822","620.096","592.948"
"GENERATED VIA SPACETRACK.ORG API","JSPOC","15595","GEOSAT","PAYLOAD","U","85021A","2016-01-13 04:15:43","703424","14.37923689","0.0002708","108.0512","94.8012","252.1548","163.552","0","999","61548","4.9465e-05","1.4e-07","0","1979700","0 GEOSAT","1 15595U 85021A   16013.17758916  .00000014  00000-0  49465-4 0  9993","2 15595 108.0512  94.8012 0002708 252.1548 163.5520 14.37923689615480","1985-021A","15595","7143.503","100.144","767.303","763.434"
